[{"OBJECT_NAME":"STARLINK-4534","OBJECT_ID":"2022-097H","EPOCH":"2026-03-09T10:29:46.464576","MEAN_MOTION":15.08838595,"ECCENTRICITY":0.00014401,"INCLINATION":53.2161,"RA_OF_ASC_NODE":125.2613,"ARG_OF_PERICENTER":92.6847,"MEAN_ANOMALY":267.431,"EPHEMERIS_TYPE":0,"CLASSIFICATION_TYPE":"U","NORAD_CAT_ID":53395,"ELEMENT_SET_NO":999,"REV_AT_EPOCH":19847,"BSTAR":1.7838296e-5,"MEAN_MOTION_DOT":-4.0e-8,"MEAN_MOTION_DDOT":0},{"OBJECT_NAME":"OBJECT G","OBJECT_ID":"2026-027G","EPOCH":"2026-03-09T21:53:37.288032","MEAN_MOTION":15.12145257,"ECCENTRICITY":0.00120269,"INCLINATION":97.4906,"RA_OF_ASC_NODE":197.8999,"ARG_OF_PERICENTER":227.3105,"MEAN_ANOMALY":132.7114,"EPHEMERIS_TYPE":0,"CLASSIFICATION_TYPE":"U","NORAD_CAT_ID":67752,"ELEMENT_SET_NO":999,"REV_AT_EPOCH":389,"BSTAR":0.00053594907,"MEAN_MOTION_DOT":9.195e-5,"MEAN_MOTION_DDOT":0}]
